OBJECT_NAME,OBJECT_ID,EPOCH,MEAN_MOTION,ECCENTRICITY,INCLINATION,RA_OF_ASC_NODE,ARG_OF_PERICENTER,MEAN_ANOMALY,EPHEMERIS_TYPE,CLASSIFICATION_TYPE,NORAD_CAT_ID,ELEMENT_SET_NO,REV_AT_EPOCH,BSTAR,MEAN_MOTION_DOT,MEAN_MOTION_DDOT
SIRION PATHFINDER-2,2018-099B,2026-06-15T15:53:32.404704,15.14537445,.00072754,97.4253,215.7559,311.6341,48.4267,0,U,43759,999,41239,.2142054E-3,.3885E-4,0
CORVUS BC4,2018-099K,2026-06-15T22:21:05.655744,15.12487398,.0008354,97.4064,209.9482,17.0793,343.0717,0,U,43767,999,41221,.24447E-3,.4194E-4,0
M2 PATHFINDER,2020-037E,2026-06-15T23:35:18.045600,15.04672820,.0012432,97.8148,358.2013,149.6775,210.5173,0,U,45727,999,32531,.12258713E-3,.1662E-4,0
NETSAT-4,2020-068U,2026-06-16T06:46:22.886976,15.43839048,.00039557,97.8598,175.4502,342.0858,18.0248,0,U,46504,999,31563,.32079903E-3,.14457E-3,0
NETSAT-3,2020-068V,2026-06-16T06:54:25.081920,15.42651495,.00043305,97.8647,173.6737,5.2493,354.8797,0,U,46505,999,31554,.35860592E-3,.15542E-3,0
NETSAT-1,2020-068W,2026-06-15T23:04:55.567200,15.34618921,.00051771,97.8738,167.6674,36.2588,323.9003,0,U,46506,999,31511,.31358551E-3,.10438E-3,0
NETSAT-2,2020-068X,2026-06-15T23:59:49.612992,15.45954371,.00035988,97.8608,175.0355,30.6879,329.4578,0,U,46507,999,31555,.41545281E-3,.20165E-3,0
GREENCUBE (IO-117),2022-080E,2026-06-13T07:02:28.697280,6.42583230,.00089108,70.1444,299.5995,290.4576,69.5127,0,U,53109,999,9181,0,-.3E-7,0
SITRO-AIS 5 (KATYS),2023-091L,2026-06-16T06:50:14.051904,15.29440182,.0012768,97.5063,231.1755,106.2216,254.0430,0,U,57176,999,16420,.35584103E-3,.10107E-3,0
SITRO-AIS 6 (CHIRKIN),2023-091AC,2026-06-16T06:16:55.343424,15.25920702,.00130972,97.5069,230.2763,109.3115,250.9541,0,U,57192,999,16414,.34757515E-3,.8865E-4,0
SITRO-AIS 8 (ANOKHIN),2023-091AD,2026-06-16T07:17:01.300992,15.32116048,.00118015,97.5058,232.7794,102.6444,257.6118,0,U,57193,999,16431,.37578867E-3,.11602E-3,0
SITRO-AIS 7 (FARTUSHNIY),2023-091AE,2026-06-16T04:46:44.146848,15.25607216,.00129447,97.5067,230.0387,110.3686,249.8944,0,U,57194,999,16412,.32685462E-3,.8253E-4,0
SITRO-AIS 10 (BURDAEV),2023-091AK,2026-06-16T06:34:08.775552,15.38583885,.00075779,97.5084,237.7938,83.0927,277.1180,0,U,57199,999,16462,.45403709E-3,.17245E-3,0
SITRO-AIS 9 (SHCHUKIN),2023-091AM,2026-06-16T07:11:44.556000,15.38093393,.00078237,97.5082,237.5512,83.1288,277.0846,0,U,57201,999,16461,.43275139E-3,.16171E-3,0
SITRO-AIS 12 (SMIRENNIY),2023-091AQ,2026-06-16T06:58:28.862112,15.38386481,.000736,97.5095,238.0084,78.2651,281.9419,0,U,57204,999,16463,.44664527E-3,.16853E-3,0
SITRO-AIS 11 (SHEFFER),2023-091AU,2026-06-16T07:18:09.213984,15.38810587,.00072392,97.5093,238.2685,78.0430,282.1626,0,U,57208,999,16465,.42621945E-3,.163E-3,0
SITRO-AIS 25,2024-039R,2026-06-16T07:18:01.935648,14.93509645,.01435885,95.3908,234.4857,331.8675,27.4844,0,U,59066,999,12459,.16979403E-3,.2153E-4,0
SITRO-AIS 26,2024-039S,2026-06-16T07:19:50.138688,14.93305675,.01439328,95.3909,234.3844,332.4476,26.9170,0,U,59067,999,12458,.17123491E-3,.2162E-4,0
SITRO-AIS 27,2024-039T,2026-06-16T06:37:20.885952,14.93727559,.01428661,95.3915,234.6353,331.2021,28.1370,0,U,59068,999,12460,.19937692E-3,.2545E-4,0
SITRO-AIS 28,2024-039U,2026-06-16T06:04:53.765184,14.93759129,.01427961,95.3912,234.6671,331.0762,28.2602,0,U,59071,999,12460,.20803447E-3,.2659E-4,0
GRBBETA,2024-128C,2026-06-16T06:58:52.460544,15.06634918,.00407684,61.9886,219.4111,134.4896,225.9542,0,U,60237,999,10613,.19394891E-3,.2722E-4,0
OOV-CUBE (TUBSAT-30),2024-128F,2026-06-16T07:45:54.161856,15.02771261,.00446947,61.9943,228.5853,133.5156,226.9663,0,U,60240,999,10598,.13082539E-3,.1579E-4,0
ROBUSTA-3A (MEDITERRANEE),2024-128J,2026-06-16T06:35:54.617280,15.11669085,.00414574,61.9850,211.4709,127.8615,232.6243,0,U,60243,999,10628,.26919444E-3,.4469E-4,0
LASARSAT,2024-247Q,2026-06-16T00:10:25.109184,15.46313452,.00082583,44.9746,268.8456,324.3459,35.6879,0,U,62391,999,8313,.52617793E-3,.26291E-3,0
CROCUBE,2024-247T,2026-06-14T14:05:15.116064,15.48102542,.0008187,44.9722,274.1999,320.7516,39.2780,0,U,62394,999,8294,.65094E-3,.34757E-3,0
FORESAIL-1 PRIME,2025-276DS,2026-06-16T00:11:52.442304,15.18693531,.0003893,97.4205,240.3003,107.9199,252.2460,0,U,66778,999,3022,.22130054E-3,.4523E-4,0
KNACKSAT-2,1998-067XZ,2026-06-16T01:39:43.850592,15.59891318,.00092317,51.6312,300.0997,210.2496,149.7965,0,U,67683,999,2010,.48947014E-3,.39932E-3,0
